HAWK-5A                 
1 52757U 22057AB  26189.90403340  .00012876  00000+0  21435-3 0  9992
2 52757  97.6624 350.1701 0003956   2.8161 357.3112 15.52169718229718
HAWK-6B                 
1 55324U 23011A   26189.55961022  .00002509  00000+0  11224-3 0  9990
2 55324  40.4969 227.3973 0003187 204.0869 155.9792 15.23115098191109
HAWK-6C                 
1 55326U 23011C   26189.55898823  .00002808  00000+0  12466-3 0  9991
2 55326  40.4958 224.2363 0003601 192.3614 167.7107 15.23116126191111
HAWK-6A                 
1 55327U 23011D   26189.55902097  .00002774  00000+0  12323-3 0  9995
2 55327  40.4967 225.8631 0003138 190.2605 169.8140 15.23117158191115
HAWK-7A                 
1 56191U 23054P   26189.92518417  .00003532  00000+0  13363-3 0  9990
2 56191  97.2676  76.7099 0002128   1.2836 358.8408 15.27588795180341
HAWK-7B                 
1 56193U 23054R   26189.66308761  .00003815  00000+0  14409-3 0  9998
2 56193  97.2701  74.7258 0002012  28.4560 331.6789 15.27590369180301
HAWK-7C                 
1 56200U 23054Y   26189.66297720  .00003788  00000+0  14309-3 0  9997
2 56200  97.2678  75.4879 0001668  14.6785 345.4503 15.27588842180302
